{
  "type": "FeatureCollection",
  "features": [
    {
      "type": "Feature",
      "properties": {
        "norad_id": 34492,
        "name": "IRIDIUM 33 DEB",
        "group": "iridium-33-debris",
        "lat": 21.866195287289155,
        "lon": -22.57094517259251,
        "alt_km": 897.2010521688226,
        "timestamp": "2025-12-09T07:41:33.595703+00:00",
        "meta_object_name": "IRIDIUM 33 DEB",
        "meta_object_id": "1997-051GH",
        "meta_epoch": "2025-12-07T23:50:44.784960",
        "meta_mean_motion": 14.25534668,
        "meta_eccentricity": 0.0189621,
        "meta_inclination": 86.4724,
        "meta_ra_of_asc_node": 336.5463,
        "meta_arg_of_pericenter": 253.6464,
        "meta_mean_anomaly": 161.0806,
        "meta_ephemeris_type": 0,
        "meta_classification_type": "U",
        "meta_norad_cat_id": 34492,
        "meta_element_set_no": 999,
        "meta_rev_at_epoch": 84991,
        "meta_bstar": 0.0068533726,
        "meta_mean_motion_dot": 0.00019616,
        "meta_mean_motion_ddot": 0,
        "tle_line1": "1 34492U 97051GH  25341.99357390  .00019616  00000+0  68534-2 0  9994",
        "tle_line2": "2 34492  86.4724 336.5463 0189621 253.6464 161.0806 14.25534668849919"
      },
      "geometry": {
        "type": "Point",
        "coordinates": [
          -22.57094517259251,
          21.866195287289155
        ]
      }
    },
    {
      "type": "Feature",
      "properties": {
        "norad_id": 34497,
        "name": "IRIDIUM 33 DEB",
        "group": "iridium-33-debris",
        "lat": -55.82156046692158,
        "lon": -120.63676224298842,
        "alt_km": 830.9612769855403,
        "timestamp": "2025-12-09T07:41:33.595713+00:00",
        "meta_object_name": "IRIDIUM 33 DEB",
        "meta_object_id": "1997-051GN",
        "meta_epoch": "2025-12-08T05:36:30.454848",
        "meta_mean_motion": 14.27433857,
        "meta_eccentricity": 0.00792669,
        "meta_inclination": 86.2781,
        "meta_ra_of_asc_node": 54.3266,
        "meta_arg_of_pericenter": 354.2573,
        "meta_mean_anomaly": 60.9681,
        "meta_ephemeris_type": 0,
        "meta_classification_type": "U",
        "meta_norad_cat_id": 34497,
        "meta_element_set_no": 999,
        "meta_rev_at_epoch": 86819,
        "meta_bstar": 0.00099948943,
        "meta_mean_motion_dot": 2.553e-05,
        "meta_mean_motion_ddot": 0,
        "tle_line1": "1 34497U 97051GN  25342.23368582  .00002553  00000+0  99949-3 0  9999",
        "tle_line2": "2 34497  86.2781  54.3266 0079266 354.2573  60.9681 14.27433857868192"
      },
      "geometry": {
        "type": "Point",
        "coordinates": [
          -120.63676224298842,
          -55.82156046692158
        ]
      }
    },
    {
      "type": "Feature",
      "properties": {
        "norad_id": 34508,
        "name": "IRIDIUM 33 DEB",
        "group": "iridium-33-debris",
        "lat": -80.18601329133564,
        "lon": -54.3795615177417,
        "alt_km": 760.3560914720574,
        "timestamp": "2025-12-09T07:41:33.595724+00:00",
        "meta_object_name": "IRIDIUM 33 DEB",
        "meta_object_id": "1997-051GZ",
        "meta_epoch": "2025-12-08T20:28:07.821120",
        "meta_mean_motion": 14.38371181,
        "meta_eccentricity": 0.00658648,
        "meta_inclination": 86.3703,
        "meta_ra_of_asc_node": 104.2908,
        "meta_arg_of_pericenter": 185.485,
        "meta_mean_anomaly": 174.5635,
        "meta_ephemeris_type": 0,
        "meta_classification_type": "U",
        "meta_norad_cat_id": 34508,
        "meta_element_set_no": 999,
        "meta_rev_at_epoch": 87253,
        "meta_bstar": 0.0019764098,
        "meta_mean_motion_dot": 6.195e-05,
        "meta_mean_motion_ddot": 0,
        "tle_line1": "1 34508U 97051GZ  25342.85286830  .00006195  00000+0  19764-2 0  9997",
        "tle_line2": "2 34508  86.3703 104.2908 0065864 185.4850 174.5635 14.38371181872536"
      },
      "geometry": {
        "type": "Point",
        "coordinates": [
          -54.3795615177417,
          -80.18601329133564
        ]
      }
    },
    {
      "type": "Feature",
      "properties": {
        "norad_id": 34521,
        "name": "IRIDIUM 33 DEB",
        "group": "iridium-33-debris",
        "lat": 48.44882101574633,
        "lon": -152.04264584778727,
        "alt_km": 678.5125419703272,
        "timestamp": "2025-12-09T07:41:33.595734+00:00",
        "meta_object_name": "IRIDIUM 33 DEB",
        "meta_object_id": "1997-051HN",
        "meta_epoch": "2025-12-08T14:40:57.220032",
        "meta_mean_motion": 14.63311366,
        "meta_eccentricity": 0.0001172,
        "meta_inclination": 86.3799,
        "meta_ra_of_asc_node": 32.3653,
        "meta_arg_of_pericenter": 244.4275,
        "meta_mean_anomaly": 115.6816,
        "meta_ephemeris_type": 0,
        "meta_classification_type": "U",
        "meta_norad_cat_id": 34521,
        "meta_element_set_no": 999,
        "meta_rev_at_epoch": 88412,
        "meta_bstar": 0.0013532,
        "meta_mean_motion_dot": 7.004e-05,
        "meta_mean_motion_ddot": 0,
        "tle_line1": "1 34521U 97051HN  25342.61177338  .00007004  00000+0  13532-2 0  9995",
        "tle_line2": "2 34521  86.3799  32.3653 0001172 244.4275 115.6816 14.63311366884125"
      },
      "geometry": {
        "type": "Point",
        "coordinates": [
          -152.04264584778727,
          48.44882101574633
        ]
      }
    },
    {
      "type": "Feature",
      "properties": {
        "norad_id": 34525,
        "name": "IRIDIUM 33 DEB",
        "group": "iridium-33-debris",
        "lat": -21.804798770692024,
        "lon": -130.24269897685966,
        "alt_km": 755.1484331733172,
        "timestamp": "2025-12-09T07:41:33.595744+00:00",
        "meta_object_name": "IRIDIUM 33 DEB",
        "meta_object_id": "1997-051HS",
        "meta_epoch": "2025-12-08T10:52:50.630592",
        "meta_mean_motion": 14.42890463,
        "meta_eccentricity": 0.00066346,
        "meta_inclination": 86.373,
        "meta_ra_of_asc_node": 48.6732,
        "meta_arg_of_pericenter": 105.0702,
        "meta_mean_anomaly": 275.0516,
        "meta_ephemeris_type": 0,
        "meta_classification_type": "U",
        "meta_norad_cat_id": 34525,
        "meta_element_set_no": 999,
        "meta_rev_at_epoch": 88026,
        "meta_bstar": 0.00067150553,
        "meta_mean_motion_dot": 2.262e-05,
        "meta_mean_motion_ddot": 0,
        "tle_line1": "1 34525U 97051HS  25342.45336378  .00002262  00000+0  67151-3 0  9990",
        "tle_line2": "2 34525  86.3730  48.6732 0006634 105.0702 275.0516 14.42890463880263"
      },
      "geometry": {
        "type": "Point",
        "coordinates": [
          -130.24269897685966,
          -21.804798770692024
        ]
      }
    },
    {
      "type": "Feature",
      "properties": {
        "norad_id": 34529,
        "name": "IRIDIUM 33 DEB",
        "group": "iridium-33-debris",
        "lat": 55.26730935898562,
        "lon": -148.39250885719693,
        "alt_km": 749.9963269002646,
        "timestamp": "2025-12-09T07:41:33.595763+00:00",
        "meta_object_name": "IRIDIUM 33 DEB",
        "meta_object_id": "1997-051HW",
        "meta_epoch": "2025-12-08T04:26:38.874624",
        "meta_mean_motion": 14.40610073,
        "meta_eccentricity": 0.00042345,
        "meta_inclination": 86.3644,
        "meta_ra_of_asc_node": 37.3532,
        "meta_arg_of_pericenter": 192.5106,
        "meta_mean_anomaly": 167.5989,
        "meta_ephemeris_type": 0,
        "meta_classification_type": "U",
        "meta_norad_cat_id": 34529,
        "meta_element_set_no": 999,
        "meta_rev_at_epoch": 88076,
        "meta_bstar": 0.00018799813,
        "meta_mean_motion_dot": 6.19e-06,
        "meta_mean_motion_ddot": 0,
        "tle_line1": "1 34529U 97051HW  25342.18517216  .00000619  00000+0  18800-3 0  9997",
        "tle_line2": "2 34529  86.3644  37.3532 0004234 192.5106 167.5989 14.40610073880766"
      },
      "geometry": {
        "type": "Point",
        "coordinates": [
          -148.39250885719693,
          55.26730935898562
        ]
      }
    },
    {
      "type": "Feature",
      "properties": {
        "norad_id": 34538,
        "name": "IRIDIUM 33 DEB",
        "group": "iridium-33-debris",
        "lat": -63.256459118482724,
        "lon": -0.3703381037062246,
        "alt_km": 739.7693134630144,
        "timestamp": "2025-12-09T07:41:33.595774+00:00",
        "meta_object_name": "IRIDIUM 33 DEB",
        "meta_object_id": "1997-051JF",
        "meta_epoch": "2025-12-08T12:43:03.891360",
        "meta_mean_motion": 14.42610474,
        "meta_eccentricity": 0.00333253,
        "meta_inclination": 86.2772,
        "meta_ra_of_asc_node": 7.3997,
        "meta_arg_of_pericenter": 342.2911,
        "meta_mean_anomaly": 171.1189,
        "meta_ephemeris_type": 0,
        "meta_classification_type": "U",
        "meta_norad_cat_id": 34538,
        "meta_element_set_no": 999,
        "meta_rev_at_epoch": 87695,
        "meta_bstar": 0.0013892431,
        "meta_mean_motion_dot": 4.663e-05,
        "meta_mean_motion_ddot": 0,
        "tle_line1": "1 34538U 97051JF  25342.52990615  .00004663  00000+0  13892-2 0  9991",
        "tle_line2": "2 34538  86.2772   7.3997 0033325 342.2911 171.1189 14.42610474876956"
      },
      "geometry": {
        "type": "Point",
        "coordinates": [
          -0.3703381037062246,
          -63.256459118482724
        ]
      }
    }
  ]
}